{
  "type": "FeatureCollection",
  "features": [
    {
      "type": "Feature",
      "properties": {
        "norad_id": 30342,
        "name": "FENGYUN 1C DEB",
        "group": "fengyun-1c-debris",
        "lat": 27.176828705299627,
        "lon": 172.73239133539278,
        "alt_km": 911.9390764045302,
        "timestamp": "2025-12-23T16:57:12.628007+00:00",
        "meta_object_name": "FENGYUN 1C DEB",
        "meta_object_id": "1999-025ABD",
        "meta_epoch": "2025-12-23T01:46:10.437024",
        "meta_mean_motion": 13.80058147,
        "meta_eccentricity": 0.01682684,
        "meta_inclination": 100.1959,
        "meta_ra_of_asc_node": 177.3526,
        "meta_arg_of_pericenter": 96.1286,
        "meta_mean_anomaly": 31.798,
        "meta_ephemeris_type": 0,
        "meta_classification_type": "U",
        "meta_norad_cat_id": 30342,
        "meta_element_set_no": 999,
        "meta_rev_at_epoch": 95031,
        "meta_bstar": 0.00057092614,
        "meta_mean_motion_dot": 6.11e-06,
        "meta_mean_motion_ddot": 0,
        "tle_line1": "1 30342U 99025ABD 25357.07373191  .00000611  00000+0  57093-3 0  9994",
        "tle_line2": "2 30342 100.1959 177.3526 0168268  96.1286  31.7980 13.80058147950316"
      },
      "geometry": {
        "type": "Point",
        "coordinates": [
          172.73239133539278,
          27.176828705299627
        ]
      }
    },
    {
      "type": "Feature",
      "properties": {
        "norad_id": 30344,
        "name": "FENGYUN 1C DEB",
        "group": "fengyun-1c-debris",
        "lat": 64.90488239932043,
        "lon": 60.94683563936747,
        "alt_km": 708.4831079082824,
        "timestamp": "2025-12-23T16:57:12.628019+00:00",
        "meta_object_name": "FENGYUN 1C DEB",
        "meta_object_id": "1999-025ABF",
        "meta_epoch": "2025-12-23T05:12:15.804576",
        "meta_mean_motion": 14.51932521,
        "meta_eccentricity": 0.00068779,
        "meta_inclination": 98.8196,
        "meta_ra_of_asc_node": 79.7941,
        "meta_arg_of_pericenter": 91.6792,
        "meta_mean_anomaly": 297.4423,
        "meta_ephemeris_type": 0,
        "meta_classification_type": "U",
        "meta_norad_cat_id": 30344,
        "meta_element_set_no": 999,
        "meta_rev_at_epoch": 98229,
        "meta_bstar": 0.0023525662,
        "meta_mean_motion_dot": 9.456e-05,
        "meta_mean_motion_ddot": 0,
        "tle_line1": "1 30344U 99025ABF 25357.21684959  .00009456  00000+0  23526-2 0  9998",
        "tle_line2": "2 30344  98.8196  79.7941 0006877  91.6792 297.4423 14.51932521982290"
      },
      "geometry": {
        "type": "Point",
        "coordinates": [
          60.94683563936747,
          64.90488239932043
        ]
      }
    },
    {
      "type": "Feature",
      "properties": {
        "norad_id": 30345,
        "name": "FENGYUN 1C DEB",
        "group": "fengyun-1c-debris",
        "lat": 71.01854508473575,
        "lon": 30.391560726660853,
        "alt_km": 755.4329697975427,
        "timestamp": "2025-12-23T16:57:12.628030+00:00",
        "meta_object_name": "FENGYUN 1C DEB",
        "meta_object_id": "1999-025ABG",
        "meta_epoch": "2025-12-22T17:17:47.029344",
        "meta_mean_motion": 14.41778781,
        "meta_eccentricity": 0.00181154,
        "meta_inclination": 98.9207,
        "meta_ra_of_asc_node": 56.5328,
        "meta_arg_of_pericenter": 215.1415,
        "meta_mean_anomaly": 144.858,
        "meta_ephemeris_type": 0,
        "meta_classification_type": "U",
        "meta_norad_cat_id": 30345,
        "meta_element_set_no": 999,
        "meta_rev_at_epoch": 97917,
        "meta_bstar": 0.0020040802,
        "meta_mean_motion_dot": 6.515e-05,
        "meta_mean_motion_ddot": 0,
        "tle_line1": "1 30345U 99025ABG 25356.72068321  .00006515  00000+0  20041-2 0  9995",
        "tle_line2": "2 30345  98.9207  56.5328 0018115 215.1415 144.8580 14.41778781979177"
      },
      "geometry": {
        "type": "Point",
        "coordinates": [
          30.391560726660853,
          71.01854508473575
        ]
      }
    },
    {
      "type": "Feature",
      "properties": {
        "norad_id": 30346,
        "name": "FENGYUN 1C DEB",
        "group": "fengyun-1c-debris",
        "lat": -18.1127032267835,
        "lon": -88.2951946411489,
        "alt_km": 818.2992384296795,
        "timestamp": "2025-12-23T16:57:12.628043+00:00",
        "meta_object_name": "FENGYUN 1C DEB",
        "meta_object_id": "1999-025ABH",
        "meta_epoch": "2025-12-23T04:37:13.164672",
        "meta_mean_motion": 14.33991725,
        "meta_eccentricity": 0.00550332,
        "meta_inclination": 98.808,
        "meta_ra_of_asc_node": 94.0887,
        "meta_arg_of_pericenter": 352.37,
        "meta_mean_anomaly": 74.7945,
        "meta_ephemeris_type": 0,
        "meta_classification_type": "U",
        "meta_norad_cat_id": 30346,
        "meta_element_set_no": 999,
        "meta_rev_at_epoch": 97563,
        "meta_bstar": 0.0018678153,
        "meta_mean_motion_dot": 5.26e-05,
        "meta_mean_motion_ddot": 0,
        "tle_line1": "1 30346U 99025ABH 25357.19251348  .00005260  00000+0  18678-2 0  9990",
        "tle_line2": "2 30346  98.8080  94.0887 0055033 352.3700  74.7945 14.33991725975633"
      },
      "geometry": {
        "type": "Point",
        "coordinates": [
          -88.2951946411489,
          -18.1127032267835
        ]
      }
    },
    {
      "type": "Feature",
      "properties": {
        "norad_id": 30347,
        "name": "FENGYUN 1C DEB",
        "group": "fengyun-1c-debris",
        "lat": 46.2862663110559,
        "lon": 171.68349077852235,
        "alt_km": 834.8343517334533,
        "timestamp": "2025-12-23T16:57:12.628056+00:00",
        "meta_object_name": "FENGYUN 1C DEB",
        "meta_object_id": "1999-025ABJ",
        "meta_epoch": "2025-12-22T11:40:42.994272",
        "meta_mean_motion": 13.92773094,
        "meta_eccentricity": 0.01501796,
        "meta_inclination": 98.3766,
        "meta_ra_of_asc_node": 179.4444,
        "meta_arg_of_pericenter": 6.6858,
        "meta_mean_anomaly": 46.5436,
        "meta_ephemeris_type": 0,
        "meta_classification_type": "U",
        "meta_norad_cat_id": 30347,
        "meta_element_set_no": 999,
        "meta_rev_at_epoch": 96096,
        "meta_bstar": 0.00010777693,
        "meta_mean_motion_dot": 1.15e-06,
        "meta_mean_motion_ddot": 0,
        "tle_line1": "1 30347U 99025ABJ 25356.48660873  .00000115  00000+0  10778-3 0  9997",
        "tle_line2": "2 30347  98.3766 179.4444 0150179   6.6858  46.5436 13.92773094960960"
      },
      "geometry": {
        "type": "Point",
        "coordinates": [
          171.68349077852235,
          46.2862663110559
        ]
      }
    },
    {
      "type": "Feature",
      "properties": {
        "norad_id": 30348,
        "name": "FENGYUN 1C DEB",
        "group": "fengyun-1c-debris",
        "lat": 0.6850006680407514,
        "lon": -87.14007120568228,
        "alt_km": 788.8991848995674,
        "timestamp": "2025-12-23T16:57:12.628069+00:00",
        "meta_object_name": "FENGYUN 1C DEB",
        "meta_object_id": "1999-025ABK",
        "meta_epoch": "2025-12-21T17:59:03.053760",
        "meta_mean_motion": 14.35186133,
        "meta_eccentricity": 0.00171588,
        "meta_inclination": 98.8624,
        "meta_ra_of_asc_node": 90.7445,
        "meta_arg_of_pericenter": 346.8459,
        "meta_mean_anomaly": 166.6401,
        "meta_ephemeris_type": 0,
        "meta_classification_type": "U",
        "meta_norad_cat_id": 30348,
        "meta_element_set_no": 999,
        "meta_rev_at_epoch": 97663,
        "meta_bstar": 0.0014584422,
        "meta_mean_motion_dot": 4.131e-05,
        "meta_mean_motion_ddot": 0,
        "tle_line1": "1 30348U 99025ABK 25355.74934090  .00004131  00000+0  14584-2 0  9991",
        "tle_line2": "2 30348  98.8624  90.7445 0017158 346.8459 166.6401 14.35186133976637"
      },
      "geometry": {
        "type": "Point",
        "coordinates": [
          -87.14007120568228,
          0.6850006680407514
        ]
      }
    },
    {
      "type": "Feature",
      "properties": {
        "norad_id": 30349,
        "name": "FENGYUN 1C DEB",
        "group": "fengyun-1c-debris",
        "lat": -69.53238952003994,
        "lon": -16.452394870609435,
        "alt_km": 823.2912195620474,
        "timestamp": "2025-12-23T16:57:12.628080+00:00",
        "meta_object_name": "FENGYUN 1C DEB",
        "meta_object_id": "1999-025ABL",
        "meta_epoch": "2025-12-22T19:21:09.760608",
        "meta_mean_motion": 14.11176648,
        "meta_eccentricity": 0.00889878,
        "meta_inclination": 98.5858,
        "meta_ra_of_asc_node": 318.81,
        "meta_arg_of_pericenter": 344.0509,
        "meta_mean_anomaly": 55.6208,
        "meta_ephemeris_type": 0,
        "meta_classification_type": "U",
        "meta_norad_cat_id": 30349,
        "meta_element_set_no": 999,
        "meta_rev_at_epoch": 96373,
        "meta_bstar": 0.0018613995,
        "meta_mean_motion_dot": 3.441e-05,
        "meta_mean_motion_ddot": 0,
        "tle_line1": "1 30349U 99025ABL 25356.80636297  .00003441  00000+0  18614-2 0  9999",
        "tle_line2": "2 30349  98.5858 318.8100 0088987 344.0509  55.6208 14.11176648963733"
      },
      "geometry": {
        "type": "Point",
        "coordinates": [
          -16.452394870609435,
          -69.53238952003994
        ]
      }
    }
  ]
}